QIANFAN-33              
1 61566U 24185Q   25261.20822396  .00000355  00000+0  24723-3 0  9995
2 61566  88.9732  88.3518 0005339 220.3574 139.7207 13.96437461 57228
QIANFAN-34              
1 61567U 24185R   25261.23878027  .00000436  00000+0  27638-3 0  9999
2 61567  88.9711  88.0248 0003708 226.8557 133.2313 14.02189827 57374
QIANFAN-35              
1 61568U 24185S   25261.19986173  .00000759  00000+0  30201-3 0  9995
2 61568  88.9736  86.9273 0005967 188.2413 171.8684 14.27728280 57972
QIANFAN-36              
1 61569U 24185T   25261.19144817  .00000132  00000+0  17199-3 0  9993
2 61569  88.9718  89.9642 0004351 301.3150  58.7578 13.55553462 56330
QIANFAN-37              
1 62238U 24232B   25261.22561904  .00000097  00000+0  13101-3 0  9993
2 62238  88.9968  49.9530 0001758  75.4282 284.7064 13.50963285 87626
QIANFAN-38              
1 62239U 24232C   25261.25046363  .00000078  00000+0  10210-3 0  9991
2 62239  88.9975  49.8605 0016402  84.0781 276.2239 13.50966974 87683
QIANFAN-39              
1 62240U 24232D   25261.19527012  .00000322  00000+0  13051-3 0  9999
2 62240  88.9975  47.0808 0016086   7.0295 353.1120 14.25246800 89209
QIANFAN-40              
1 62241U 24232E   25261.20930903  .00000071  00000+0  91689-4 0  9994
2 62241  89.0004  49.4251 0015474  91.3091 268.9833 13.50971772 88048
